<!DOCTYPE html PUBLIC "-//W3C//DTD XHTML 1.0 Strict//EN" "http://www.w3.org/TR/xhtml1/DTD/xhtml1-strict.dtd">
<html xmlns="http://www.w3.org/1999/xhtml">
<head>
<meta http-equiv="Content-Type" content="text/html; charset=iso-8859-1"/>
<title>404 - File Not Found.</title>
<style type="text/css">
<!--
body{margin:0;font-size:.7em;font-family:Verdana, Arial, Helvetica, sans-serif;background:#EEEEEE;}
fieldset{padding:0 15px 10px 15px;}
h1{font-size:2.4em;margin:0;color:#FFF;}
h2{font-size:1.7em;margin:0;color:#CC0000;}
h3{font-size:1.2em;margin:10px 0 0 0;color:#000000;}
#header{width:96%;margin:0 0 0 0;padding:6px 2% 6px 2%;font-family:"trebuchet MS", Verdana, sans-serif;color:#FFF;
background-color:#555555;}
#content{margin:0 0 0 2%;position:relative;}
.content-container{background:#FFF;width:96%;margin-top:8px;padding:10px;position:relative;}
-->
</style>
</head>
<body>
<div id="header"><h1>Server Error</h1></div>
<div id="content">
 <div class="content-container"><fieldset>
  <h2>404 - File Not Found.</h2>
  <h3>File not found for celestrak.org/NORAD/elements/active.txt.</h3>
  <h3>Please contact <a href="mailto:ts.kelso@celestrak.org">ts.kelso@celestrak.org</a> if you have other questions.</h3>
 </fieldset></div>
</div>
</body>
</html>
SL-3 R/B                
1 14208U 83075B   24062.90910802  .00007067  00000+0  33117-3 0  9998
2 14208  97.5604  41.8073 0030834 311.3013  48.5568 15.19592857217582
COSMOS 1500             
1 14372U 83099A   24062.89790203  .00015396  00000+0  44910-3 0  9992
2 14372  82.5068  69.2064 0011059 151.2205 208.9650 15.35161238209890
COSMOS 1536             
1 14699U 84013A   24062.63652005  .00003534  00000+0  20655-3 0  9991
2 14699  82.5479 113.2243 0017705 331.9087  28.1186 15.11459091160833
COSMOS 1544             
1 14819U 84027A   24063.24652818  .00060529  00000+0  70360-3 0  9995
2 14819  82.4688  61.4969 0005399  24.1674 335.9836 15.61483696190978
SL-14 R/B               
1 14820U 84027B   24062.92308699  .00000765  00000+0  87660-4 0  9994
2 14820  82.5422 215.2604 0017102 250.1503 109.7870 14.84591513138260
SL-8 R/B                
1 15483U 85006B   24062.77468458  .00000398  00000+0  14307-3 0  9990
2 15483  74.0470 176.2912 0019803 273.3779 197.3568 14.36945656 48147
COSMOS 1626             
1 15494U 85009A   24062.68946271  .00024907  00000+0  51325-3 0  9992
2 15494  82.4687 301.6155 0003656  72.8304 287.3345 15.45761791142336
SL-12 R/B(2)            
1 15772U 85042D   24062.81036590  .00000266  00000+0  14203-3 0  9993
2 15772  71.1077 204.0794 0036012 195.9089 269.9409 14.21570293  9659
SL-14 R/B               
1 15945U 85069B   24062.85673266  .00000763  00000+0  86345-4 0  9994
2 15945  82.5309 357.1048 0020807 109.6332 250.7132 14.85014772 63426
SL-16 R/B               
1 16182U 85097B   24062.96608686 -.00000207  00000+0 -79889-4 0  9995
2 16182  71.0006 251.3451 0009632 292.4502 176.7354 14.16394971982893
SL-14 R/B               
1 16496U 86006B   24062.94925022  .00000762  00000+0  86143-4 0  9993
2 16496  82.5228 232.1731 0017562 256.9652 217.5837 14.85102904 39795
COSMOS 1743             
1 16719U 86034A   24063.15468457  .00006635  00000+0  25981-3 0  9997
2 16719  82.5449 103.5470 0011190  54.8001 305.4283 15.25561635 67263
SL-14 R/B               
1 16792U 86046B   24062.91184943  .00000672  00000+0  77089-4 0  9991
2 16792  82.4800  55.5152 0024802 138.0028 222.3095 14.84191770 17069
SL-14 R/B               
1 16882U 86055B   24063.19669134  .00000552  00000+0  63068-4 0  9991
2 16882  82.5180  98.2298 0017975 244.3485 183.9632 14.84213438 31237
AJISAI (EGS)            
1 16908U 86061A   24062.90485300 -.00000078  00000+0  13526-3 0  9993
2 16908  50.0076 198.9206 0011284 210.7034 257.2833 12.44504363376257
COSMOS 1812             
1 17295U 87003A   24062.92253270  .00012193  00000+0  44078-3 0  9997
2 17295  82.5062 243.7307 0001814 254.4768 105.6271 15.28324395 30271
SL-14 R/B               
1 17567U 87024B   24062.94147076  .00000660  00000+0  74847-4 0  9994
2 17567  82.5256  64.3856 0018881 173.3964 186.7505 14.84723064978822
COSMOS 1833             
1 17589U 87027A   24063.12940542  .00000268  00000+0  16924-3 0  9996
2 17589  70.9178  74.1291 0022649 231.3773 128.5320 14.12965820906494
SL-16 R/B               
1 17590U 87027B   24063.16591750  .00000029  00000+0  38164-4 0  9991
2 17590  71.0039  28.2713 0005076 192.0439 168.0564 14.16944656911279
SL-14 R/B               
1 17912U 87038B   24063.10323397  .00000557  00000+0  63834-4 0  9993
2 17912  82.4984 269.9347 0021231  77.9140 282.4453 14.83989005991019
COSMOS 1844             
1 17973U 87041A   24062.63362752  .00000383  00000+0  22459-3 0  9993
2 17973  70.8990 148.5228 0029329  46.5625 313.7930 14.14287725899367
SL-14 R/B               
1 18153U 87055B   24063.14105294  .00000614  00000+0  70269-4 0  9992
2 18153  82.5019 322.6146 0019741 288.5169  71.3901 14.84247276981712
COSMOS 1867             
1 18187U 87060A   24062.77049884  .00000042  00000+0  53600-4 0  9990
2 18187  65.0099 210.1087 0019822 278.3651  81.5186 14.31273370914452
COSMOS 1892             
1 18421U 87088A   24062.92801305  .00013346  00000+0  44429-3 0  9991
2 18421  82.4967   5.4247 0012417  26.3988 333.7882 15.30934548990393
SL-14 R/B               
1 18749U 88001B   24063.02232716  .00000749  00000+0  86533-4 0  9992
2 18749  82.5172 167.6854 0019273 148.9073 211.3287 14.84162825953784
COSMOS 1933             
1 18958U 88020A   24062.90274685  .00003314  00000+0  20885-3 0  9990
2 18958  82.5236 254.8104 0002459 227.8806 132.2214 15.08847841938816
SL-3 R/B                
1 19046U 88032B   24062.91911010  .00004559  00000+0  29178-3 0  9999
2 19046  97.4414  47.7670 0031004 263.4950  96.2749 15.08676218940586
SL-16 R/B               
1 19120U 88039B   24062.74671548  .00000131  00000+0  84929-4 0  9997
2 19120  71.0150 186.5544 0020800  24.9810 335.2317 14.19381917853808
COSMOS 1953             
1 19210U 88050A   24062.79498370  .00005954  00000+0  33127-3 0  9996
2 19210  82.5166 171.0945 0015513 174.9825 185.1565 15.13372993925764
SL-8 R/B                
1 19257U 88053B   24062.92606388  .00000387  00000+0  13623-3 0  9999
2 19257  74.0485  29.6676 0019470  30.0394  29.0020 14.38073399870656
COSMOS 1975             
1 19573U 88093A   24062.63736404  .00005600  00000+0  31865-3 0  9996
2 19573  82.5281 128.6152 0015063 222.5116 137.4949 15.12567608907400
SL-14 R/B               
1 19574U 88093B   24062.93777697  .00000819  00000+0  94635-4 0  9991
2 19574  82.5342  12.9261 0020139 317.5308 104.2309 14.84278073891691
SL-16 R/B               
1 19650U 88102B   24062.92446505  .00000063  00000+0  56358-4 0  9998
2 19650  70.9978 261.4941 0012509  46.2121 314.0034 14.15949635822591
INTERCOSMOS 24          
1 20261U 89080A   24062.89578720  .00002345  00000+0  69633-3 0  9999
2 20261  82.6048 223.0961 1196237 200.2998 154.6431 12.57671442574103
SL-14 R/B               
1 20262U 89080C   24062.68724648  .00000441  00000+0  12440-3 0  9998
2 20262  82.5902 286.2076 1234758  68.4582 304.3424 12.49600351568060
DELTA 1 R/B             
1 20323U 89089B   24063.09597225  .00000708  00000+0  18911-3 0  9995
2 20323  97.1054  14.3298 0069078 286.9522  72.4112 14.49317397809517
ARIANE 40 R/B           
1 20443U 90005H   24063.18848651  .00000363  00000+0  13205-3 0  9998
2 20443  98.4057 130.9487 0009251 254.6539 105.3627 14.38807243787119
DELTA 2 R/B(1)          
1 20453U 90008B   24062.59791946  .00017629  00000+0  71986-3 0  9993
2 20453  35.6190 122.6600 0217186 186.8978 172.8731 15.04614242813436
COSMOS 2058             
1 20465U 90010A   24062.92474567  .00003898  00000+0  29145-3 0  9996
2 20465  82.4866  47.4157 0012470 312.4147  47.6023 15.02473027831260
SL-14 R/B               
1 20466U 90010B   24062.88900988  .00000719  00000+0  86870-4 0  9991
2 20466  82.5001 238.7169 0019645 202.9173 157.1167 14.82266677819286
SL-14 R/B               
1 20511U 90018B   24063.08488783  .00000665  00000+0  82971-4 0  9995
2 20511  82.5244 190.9826 0016548 358.9742   1.1434 14.80894168834606
HST                     
1 20580U 90037B   24063.13131939  .00005808  00000+0  28332-3 0  9990
2 20580  28.4696 334.8289 0002688 323.4287  36.6122 15.16155999661174
SL-16 R/B               
1 20625U 90046B   24062.68973584  .00000247  00000+0  15234-3 0  9998
2 20625  70.9996  45.5055 0015061 336.1525  23.8898 14.14812060744144
COSMOS 2084             
1 20663U 90055A   24062.90180554  .00004140  00000+0  31973-3 0  9996
2 20663  62.7925 314.9215 0122377 110.1841 251.2467 14.97417336825640
SL-6 R/B(2)             
1 20666U 90055D   24062.78643726  .00004670  00000+0  37871-3 0  9991
2 20666  62.7831 228.9949 0100522 132.3636 228.6027 14.97193211827592
SL-8 R/B                
1 20775U 90078B   24062.80970259  .00011402  00000+0  47654-3 0  9995
2 20775  82.9212 177.4494 0485657 274.6179  79.9729 14.56057417700824
SL-8 R/B                
1 21088U 91006B   24062.90507297  .00000124  00000+0  10932-3 0  9992
2 21088  82.9468 358.0930 0021388 301.0997 124.2230 13.77322804662642
OKEAN-3                 
1 21397U 91039A   24062.81454412  .00003576  00000+0  30532-3 0  9993
2 21397  82.5222 326.8839 0015364 313.6553  46.3394 14.97333652754478
COSMOS 2151             
1 21422U 91042A   24063.12313444  .00002047  00000+0  18379-3 0  9997
2 21422  82.4963  71.5039 0014352  29.2581 330.9441 14.95174753774088
SL-14 R/B               
1 21423U 91042B   24062.85845962  .00000722  00000+0  90883-4 0  9991
2 21423  82.4961 190.5666 0018330 137.6036 222.6598 14.80621627743991
ERS-1                   
1 21574U 91050A   24062.92691917  .00000385  00000+0  14062-3 0  9993
2 21574  98.7721  52.2663 0031698 225.3194 134.5409 14.38408444709778
